NORAD_CAT_ID,OBJECT_NAME,OBJECT_TYPE,EPOCH,MEAN_MOTION,ECCENTRICITY,INCLINATION,RA_OF_ASC_NODE,ARG_OF_PERICENTER,MEAN_ANOMALY,BSTAR,MEAN_MOTION_DOT,MEAN_MOTION_DDOT,TLE_LINE0,TLE_LINE1,TLE_LINE2,SEMIMAJOR_AXIS,PERIOD,APOGEE,PERIGEE,DECAYED
53544.0,STARLINK-4303,PAYLOAD,2022-09-21 22:00:00,15.73253582,0.0003384,53.2176,350.8023,6.0752,283.3801,-0.00068217,-0.00095535,0.0,0 STARLINK-4303,1 53544U 22101T   22264.91667824 -.00095535  00000-0 -68217-3 0  9992,2 53544  53.2176 350.8023 0003384   6.0752 283.3801 15.73253582  1306,6727.7419999999975,91.53,351.884,347.331,0.0
53544.0,STARLINK-4303,PAYLOAD,2022-09-22 14:00:01,15.73139963,0.0003731,53.218,347.5047,15.1416,92.1607,0.00041269,0.00057562,0.0,0 STARLINK-4303,1 53544U 22101T   22265.58334491  .00057562  00000-0  41269-3 0  9991,2 53544  53.2180 347.5047 0003731  15.1416  92.1607 15.73139963  1300,6728.066,91.537,352.44199999999995,347.421,0.0
53544.0,STARLINK-4303,PAYLOAD,2022-09-22 22:00:00,15.7316461,0.0003707,53.2176,345.8463,16.8125,179.3834,0.00038402,0.00053551,0.0,0 STARLINK-4303,1 53544U 22101T   22265.91667824  .00053551  00000-0  38402-3 0  9996,2 53544  53.2176 345.8463 0003707  16.8125 179.3834 15.73164610  1303,6727.996,91.535,352.355,347.367,0.0
53544.0,STARLINK-4303,PAYLOAD,2022-09-23 06:00:00,15.73204529,0.00036,53.2176,344.1933,18.354,266.7531,5.6177e-06,1.65e-06,0.0,0 STARLINK-4303,1 53544U 22101T   22266.25001157  .00000165  00000-0  56177-5 0  9999,2 53544  53.2176 344.1933 0003600  18.3540 266.7531 15.73204529  5445,6727.882,91.533,352.1690000000001,347.325,0.0
53544.0,STARLINK-4303,PAYLOAD,2022-09-23 14:00:01,15.73193698,0.0003796999999999,53.2177,342.5568,14.4232,359.6786,0.00039668,0.00055419,0.0,0 STARLINK-4303,1 53544U 22101T   22266.58334491  .00055419  00000-0  39668-3 0  9991,2 53544  53.2177 342.5568 0003797  14.4232 359.6786 15.73193698  1303,6727.913000000001,91.534,352.333,347.224,0.0
53544.0,STARLINK-4303,PAYLOAD,2022-09-23 22:00:00,15.73291865,0.0003532,53.2177,340.9016,9.4513,93.5918,-0.0010535,-0.00146569,0.0,0 STARLINK-4303,1 53544U 22101T   22266.91667824 -.00146569  00000-0 -10535-2 0  9997,2 53544  53.2177 340.9016 0003532   9.4513  93.5918 15.73291865  1302,6727.6330000000025,91.528,351.874,347.122,0.0
53544.0,STARLINK-4303,PAYLOAD,2022-09-24 06:00:00,15.731612699999998,0.0002913,53.217,339.2463,345.8516,206.1983,-0.0043028999999999,-0.00564972,0.0,0 STARLINK-4303,1 53544U 22101T   22267.25001157 -.00564972  00000-0 -43029-2 0  9992,2 53544  53.2170 339.2463 0002913 345.8516 206.1983 15.73161270  5601,6728.005999999999,91.535,351.83,347.911,0.0
53544.0,STARLINK-4303,PAYLOAD,2022-09-24 14:00:01,15.72731594,0.0004173,53.2181,337.5974,297.4129,343.4098,-0.0068097999999999,-0.00848925,0.0,0 STARLINK-4303,1 53544U 22101T   22267.58335648 -.00848925  00000-0 -68098-2 0  9999,2 53544  53.2181 337.5974 0004173 297.4129 343.4098 15.72731594  1309,6729.231,91.56,353.904,348.288,0.0
53544.0,STARLINK-4303,PAYLOAD,2022-09-24 22:00:00,15.72124236,0.0006016,53.2175,335.946,279.575,89.1865,-0.0087597,-0.01058565,0.0,0 STARLINK-4303,1 53544U 22101T   22267.91667824 -.01058565  00000-0 -87597-2 0  9999,2 53544  53.2175 335.9460 0006016 279.5750  89.1865 15.72124236  1308,6730.964,91.596,356.87800000000016,348.78,0.0
53544.0,STARLINK-4303,PAYLOAD,2022-09-25 14:00:01,15.70606904,0.0005174,53.2175,332.6544,270.7895,271.3956,-0.0093756,-0.01061284,0.0,0 STARLINK-4303,1 53544U 22101T   22268.58334491 -.01061284  00000-0 -93756-2 0  9990,2 53544  53.2175 332.6544 0005174 270.7895 271.3956 15.70606904  1303,6735.2980000000025,91.684,360.648,353.67900000000014,0.0
53544.0,STARLINK-4303,PAYLOAD,2022-09-25 22:00:01,15.69831775,0.0002657,53.2175,331.0096,279.2182,348.3822,-0.0094209999999999,-0.01033767,0.0,0 STARLINK-4303,1 53544U 22101T   22268.91668981 -.01033767  00000-0 -94210-2 0  9992,2 53544  53.2175 331.0096 0002657 279.2182 348.3822 15.69831775  1305,6737.515,91.73,361.17,357.59,0.0
53544.0,STARLINK-4303,PAYLOAD,2022-09-26 10:00:00,15.68699546,0.0002452,53.2173,328.5492,275.8994,297.9365,-0.010009,-0.01046154,0.0,0 STARLINK-4303,1 53544U 22101T   22269.41667824 -.01046154  00000-0 -10009-1 0  9990,2 53544  53.2173 328.5492 0002452 275.8994 297.9365 15.68699546  5942,6740.757,91.796,364.275,360.969,0.0
53544.0,STARLINK-4303,PAYLOAD,2022-09-26 14:00:01,15.68379587,0.000124,53.2175,327.732,279.0213,156.4288,-0.010998,-0.01142831,0.0,0 STARLINK-4303,1 53544U 22101T   22269.58334491 -.01142831  00000-0 -10998-1 0  9995,2 53544  53.2175 327.7320 0001240 279.0213 156.4288 15.68379587  1308,6741.674,91.815,364.375,362.703,0.0
53544.0,STARLINK-4303,PAYLOAD,2022-09-26 22:00:00,15.67567502,7.45e-05,53.2177,326.09,94.4612,63.6235,-0.010594,-0.01055007,0.0,0 STARLINK-4303,1 53544U 22101T   22269.91667824 -.01055007  00000-0 -10594-1 0  9991,2 53544  53.2177 326.0900 0000745  94.4612  63.6235 15.67567502  1303,6744.002,91.862,366.369,365.364,0.0
53544.0,STARLINK-4303,PAYLOAD,2022-09-27 06:00:00,15.66843269,0.0001189,53.2174,324.4553,89.7989,149.9583,-0.011414,-0.01116171,0.0,0 STARLINK-4303,1 53544U 22101T   22270.25001157 -.01116171  00000-0 -11414-1 0  9993,2 53544  53.2174 324.4553 0001189  89.7989 149.9583 15.66843269  6072,6746.08,91.905,368.747,367.143,0.0
53544.0,STARLINK-4303,PAYLOAD,2022-09-27 14:00:01,15.66039488,0.0001107999999999,53.2172,322.8234,76.7491,243.8097,-0.011116,-0.01041675,0.0,0 STARLINK-4303,1 53544U 22101T   22270.58334491 -.01041675  00000-0 -11116-1 0  9994,2 53544  53.2172 322.8234 0001108  76.7491 243.8097 15.66039488  1308,6748.388000000001,91.952,371.001,369.505,0.0
53544.0,STARLINK-4303,PAYLOAD,2022-09-27 22:00:01,15.65285228,0.0001002999999999,53.2174,321.1876,75.8021,324.6888,-0.011543,-0.01048407,0.0,0 STARLINK-4303,1 53544U 22101T   22270.91668981 -.01048407  00000-0 -11543-1 0  9999,2 53544  53.2174 321.1876 0001003  75.8021 324.6888 15.65285228  6188,6750.556,91.996,373.098,371.74300000000005,0.0
53544.0,STARLINK-4303,PAYLOAD,2022-09-28 14:00:01,15.63762383,0.0001217,53.2174,317.9305,76.1075,121.3151,-0.0121739999999999,-0.0104121,0.0,0 STARLINK-4303,1 53544U 22101T   22271.58334491 -.01041210  00000-0 -12174-1 0  9995,2 53544  53.2174 317.9305 0001217  76.1075 121.3151 15.63762383  6284,6754.937,92.086,377.625,375.98,0.0
53544.0,STARLINK-4303,PAYLOAD,2022-09-28 22:00:00,15.63006182,0.000111,53.2176,316.3018,78.5361,196.0161,-0.0126209999999999,-0.01063119,0.0,0 STARLINK-4303,1 53544U 22101T   22271.91667824 -.01063119  00000-0 -12621-1 0  9990,2 53544  53.2176 316.3018 0001110  78.5361 196.0161 15.63006182  1302,6757.116,92.13,379.731,378.231,0.0
53544.0,STARLINK-4303,PAYLOAD,2022-09-29 06:00:00,15.6224916,0.0001048,53.2177,314.6773,73.8593,276.9083,-0.013049,-0.01066557,0.0,0 STARLINK-4303,1 53544U 22101T   22272.25001157 -.01066557  00000-0 -13049-1 0  9993,2 53544  53.2177 314.6773 0001048  73.8593 276.9083 15.62249160  6385,6759.299,92.175,381.872,380.455,0.0
53544.0,STARLINK-4303,PAYLOAD,2022-09-29 14:00:01,15.61517581,0.0001079,53.217,313.0571,57.96100000000001,8.0936,-0.013906,-0.01101084,0.0,0 STARLINK-4303,1 53544U 22101T   22272.58334491 -.01101084  00000-0 -13906-1 0  9996,2 53544  53.2170 313.0571 0001079  57.9610   8.0936 15.61517581  1306,6761.41,92.218,384.004,382.545,0.0
53544.0,STARLINK-4303,PAYLOAD,2022-09-29 22:00:00,15.60726724,0.0001249,53.2174,311.4324,62.1213,78.3435,-0.013757,-0.010603,0.0,0 STARLINK-4303,1 53544U 22101T   22272.91667824 -.01060300  00000-0 -13757-1 0  9991,2 53544  53.2174 311.4324 0001249  62.1213  78.3435 15.60726724  1308,6763.694,92.265,386.403,384.714,0.0
53544.0,STARLINK-4303,PAYLOAD,2022-09-30 06:00:02,15.59997459,0.0001207,53.2171,309.8144,75.0698,138.9233,-0.014757,-0.01101595,0.0,0 STARLINK-4303,1 53544U 22101T   22273.25002315 -.01101595  00000-0 -14757-1 0  9990,2 53544  53.2171 309.8144 0001207  75.0698 138.9233 15.59997459  6543,6765.801,92.308,388.483,386.85,0.0
53544.0,STARLINK-4303,PAYLOAD,2022-09-30 14:00:01,15.59198885,0.0001131,53.2167,308.199,64.6717,221.8398,-0.014393,-0.01047165,0.0,0 STARLINK-4303,1 53544U 22101T   22273.58334491 -.01047165  00000-0 -14393-1 0  9997,2 53544  53.2167 308.1990 0001131  64.6717 221.8398 15.59198885  1300,6768.111,92.355,390.742,389.211,0.0
53544.0,STARLINK-4303,PAYLOAD,2022-09-30 22:00:00,15.58448141,0.0001009,53.2173,306.5796,74.9791,283.1842,-0.015012,-0.0106007,0.0,0 STARLINK-4303,1 53544U 22101T   22273.91667824 -.01060070  00000-0 -15012-1 0  9992,2 53544  53.2173 306.5796 0001009  74.9791 283.1842 15.58448141  1300,6770.285,92.4,392.833,391.467,0.0
53544.0,STARLINK-4303,PAYLOAD,2022-10-01 14:00:01,15.56933754,0.0001296,53.2168,303.3572,59.5589,79.1683,-0.015971,-0.01064665,0.0,0 STARLINK-4303,1 53544U 22101T   22274.58334491 -.01064665  00000-0 -15971-1 0  9995,2 53544  53.2168 303.3572 0001296  59.5589  79.1683 15.56933754  6750,6774.674,92.489,397.417,395.661,0.0
53544.0,STARLINK-4303,PAYLOAD,2022-10-01 22:00:00,15.56169427,0.0001249,53.2174,301.7433,70.9649,136.6828,-0.01633,-0.0105845,0.0,0 STARLINK-4303,1 53544U 22101T   22274.91667824 -.01058450  00000-0 -16330-1 0  9996,2 53544  53.2174 301.7433 0001249  70.9649 136.6828 15.56169427  1301,6776.892,92.535,399.604,397.911,0.0
53544.0,STARLINK-4303,PAYLOAD,2022-10-02 14:00:01,15.54659895,0.0001269,53.2168,298.5318,48.9686,293.7648,-0.017482,-0.01070173,0.0,0 STARLINK-4303,1 53544U 22101T   22275.58334491 -.01070173  00000-0 -17482-1 0  9996,2 53544  53.2168 298.5318 0001269  48.9686 293.7648 15.54659895  1303,6781.278,92.625,404.004,402.283,0.0
53544.0,STARLINK-4303,PAYLOAD,2022-10-02 22:00:00,15.53890969,0.0001217,53.2174,296.9235,52.5465,356.3717,-0.017773,-0.01058724,0.0,0 STARLINK-4303,1 53544U 22101T   22275.91667824 -.01058724  00000-0 -17773-1 0  9993,2 53544  53.2174 296.9235 0001217  52.5465 356.3717 15.53890969  1300,6783.515,92.671,406.206,404.555,0.0
